IONOSFERA-M 2           
1 61736U 24199B   26179.62085237  .00000056  00000+0  44756-4 0  9996
2 61736  98.7158  52.5822 0000556  40.7498 319.3721 14.22759593132453
PRSC-EO1                
1 62725U 25012A   26179.59798189  .00006633  00000+0  33169-3 0  9995
2 62725  97.4229 251.8347 0005727 205.0014 155.0943 15.17749633 79920
BIOMASS                 
1 63772U 25090A   26176.41992450  .00000661  00000+0  12495-3 0  9993
2 63772  98.0741   3.6181 0001429  94.8977 265.2391 14.67536962 61896
GOSAT-GW (IBUKI GW)     
1 64694U 25141A   26179.64463293  .00000837  00000+0  15603-3 0  9999
2 64694  98.0568 116.7756 0001425  83.1955 276.9412 14.67556266 53527
IONOSFERA-M 3           
1 64876U 25155A   26179.64878991  .00000041  00000+0  38443-4 0  9996
2 64876  98.6029 141.2655 0001628 137.6174 222.5130 14.21488287 48032
IONOSFERA-M 4           
1 64877U 25155B   26179.61322378  .00000032  00000+0  34400-4 0  9996
2 64877  98.6028 141.1481 0001432 114.7042 245.4285 14.21490622 48021
MICROCARB               
1 64899U 25156A   26179.15861475  .00000494  00000+0  85488-4 0  9990
2 64899  97.9920 256.1077 0015519 230.8242 129.1588 14.72534160 49587
CO3D 3                  
1 64900U 25156B   26179.50915580  .00004312  00000+0  20219-3 0  9992
2 64900  97.4338 258.0391 0001808 116.1551 243.9870 15.20201502 51254
CO3D 4                  
1 64901U 25156C   26179.50929476  .00004207  00000+0  19726-3 0  9996
2 64901  97.4337 258.0393 0000645 180.5935 179.5300 15.20217269 51254
CO3D 2                  
1 64902U 25156D   26179.54178392  .00003828  00000+0  17987-3 0  9999
2 64902  97.4336 257.9701 0001477  97.7570 262.3833 15.20199601 51254
CO3D 1                  
1 64903U 25156E   26179.54192972  .00003973  00000+0  18660-3 0  9990
2 64903  97.4336 257.9703 0001320 105.2069 254.9312 15.20192123 51253
PRSC-S1                 
1 65055U 25164A   26179.60044192  .00003063  00000+0  21530-3 0  9995
2 65055  41.1291 223.5292 0005100  68.5277 291.6080 15.06539140 50158
SENTINEL-6B             
1 66514U 25264A   26179.56299395 -.00000079  00000+0 -77351-4 0  9998
2 66514  66.0410 111.5513 0007930 268.9647  91.0460 12.80929958 28620
CAS500-3                
1 66655U 25274F   26179.37553566  .00001215  00000+0  13701-3 0  9996
2 66655  97.7445 107.1721 0006953  81.8556 278.3450 14.88346615 31819
CSG-3                   
1 67304U 26001A   26179.47328090  .00000311  00000+0  45611-4 0  9992
2 67304  97.8889   2.9117 0001478  96.0994 264.0387 14.82161119 26134
PRSC-E03                
1 68835U 26092A   26179.65369184  .00002748  00000+0  18855-3 0  9996
2 68835  38.0023  22.0624 0002793 123.8124 236.2904 15.06727692  9680
CAS500-2                
1 69013U 26100AK  26179.60196627  .00006310  00000+0  28966-3 0  9993
2 69013  97.3898  77.2491 0009379 357.2834   2.8349 15.20720860  8549
